id,name,type,parent_id,region_code,city_code,address,contact,latitude,longitude,created_at,updated_at
00912125-7a4c-453d-9882-989bc72fdb74,울산광역시 북구 보건소,health_center,,ULS,,울산 북구 산업로 1018,052-241-8000,35.5835643558785,129.360727268851,2025-09-21 19:25:46.384918+00,2025-10-16 08:38:17.350545+00
0095017b-a67f-4126-ad1e-49d50079c7b5,삼척시 보건소,health_center,,GAN,,강원특별자치도 삼척시 척주로 76,033-572-4000,37.4436991088355,129.172166174109,2025-09-21 19:25:46.618973+00,2025-10-16 08:37:40.795003+00
01687a5f-2d0d-4a96-b8e3-b128d1017d51,충청북도 옥천군 보건소,health_center,,CHB,,충청북도 옥천군,043-730-2000,,,2025-09-21 19:25:46.663564+00,2025-09-21 19:25:46.663564+00
02e88c55-08ce-46af-a8c0-468d7498b92f,창원시 진해구 보건소,health_center,,GYN,,경남 창원시 진해구 진해대로 1101,055-225-6100,35.1346418037463,128.710389297811,2025-09-21 19:25:46.996595+00,2025-10-16 08:37:57.89318+00
042dbec2-992d-44d7-8d50-441adcdc96a9,춘천시 보건소,health_center,,GAN,,강원특별자치도 춘천시 중앙로 135,033-250-3000,37.875532303557,127.720235023616,2025-09-21 19:25:46.618973+00,2025-10-16 08:37:40.330529+00
04e89730-6943-4ed1-90a0-ac313d075056,부산광역시 사하구 보건소,health_center,,BUS,,부산 사하구 하신중앙로 185,051-220-5701,35.0950851177517,128.961637041027,2025-09-21 19:25:46.006943+00,2025-10-16 08:37:33.891995+00
05016c09-8520-4ab7-bb67-8bdea67ab666,의령군 보건소,health_center,,GYN,,경남 의령군 의령읍 의병로8길 16,055-570-4000,35.3178564565471,128.254799755883,2025-09-21 19:25:46.996595+00,2025-10-16 08:37:59.622812+00
05383418-3033-4c9b-b5c5-60c0d591d575,순창군 보건소,health_center,,JEB,,전북특별자치도 순창군 순창읍 교성로 135,063-650-5000,35.3670826772917,127.144000829162,2025-09-21 19:25:46.811478+00,2025-10-16 08:38:05.26579+00
05dff46f-5da2-4c19-bd08-56b0e93d2af2,사천시 보건소,health_center,,GYN,,경남 사천시 용현면 시청로 77-1,055-831-3000,35.0045146292615,128.064096369336,2025-09-21 19:25:46.996595+00,2025-10-16 08:37:58.159661+00
0748fb5c-b166-45ec-a969-57cf012a08e5,부산광역시 북구 보건소,health_center,,BUS,,부산 북구 금곡대로 348,051-309-4500,35.2392503645405,129.014776044459,2025-09-21 19:25:46.006943+00,2025-10-16 08:37:33.707026+00
07843520-121b-4d32-910f-5ea167b30b93,부산광역시 중구 보건소,health_center,,BUS,,부산 중구 중구로 120,051-600-4741,35.1066505428951,129.032480153837,2025-09-21 19:25:46.006943+00,2025-10-16 08:37:35.438988+00
096c8e89-d0e3-435e-a4af-354a6780054f,충청남도 아산시 보건소,health_center,,CHN,,충청남도 아산시,041-537-3000,,,2025-09-21 19:25:46.737648+00,2025-09-21 19:25:46.737648+00
09864456-cb2a-41a9-a23f-5462c3d01e80,대구광역시 중구 보건소,health_center,,DAE,,대구 중구 태평로 45,053-661-3000,35.877854170984,128.583245404251,2025-09-21 19:25:46.124943+00,2025-10-16 08:37:37.14323+00
0aa1440e-7495-4b1b-b672-46a62ee4f632,고성군 보건소,health_center,,GYN,,경남 고성군 고성읍 남포로79번길 103-3,055-670-4000,34.9694566156235,128.315383433273,2025-09-21 19:25:46.996595+00,2025-10-16 08:37:59.895521+00
0af54886-f366-4eb0-b26c-eacf1837b9a0,충청북도 충주시 보건소,health_center,,CHB,,충청북도 충주시,043-850-3000,,,2025-09-21 19:25:46.663564+00,2025-09-21 19:25:46.663564+00
0dd8a6e1-39df-429b-ab2c-afa2a340d472,군위군 보건소,health_center,,GYB,,대구 군위군 군위읍 군청로 70,054-380-7400,36.2296601155305,128.569976766499,2025-09-21 19:25:46.933705+00,2025-10-16 08:37:46.410849+00
0e28e069-3436-4c6b-a5ae-8022cc7ab6db,광주광역시,province,,GWA,,,,,,2025-09-08 15:33:17.099256+00,2025-09-08 15:33:17.099256+00
0e360570-d10d-489d-9656-5b510cbd3dec,과천시 보건소,health_center,,GYE,,경기 과천시 관문로 69,02-2150-3800,37.429798561983,126.986970693025,2025-09-21 19:25:46.553242+00,2025-10-16 08:37:54.024174+00
0efd8965-fb71-470e-8e09-f78c8f6c88f8,임실군 보건소,health_center,,JEB,,전북특별자치도 임실군 임실읍 호국로 1680,063-640-3000,35.6124950912514,127.286975554898,2025-09-21 19:25:46.811478+00,2025-10-16 08:38:04.172141+00
0ff9df96-af28-4709-bb77-3da3875fdb45,강원응급의료지원센터,emergency_center,,GAN,,강원특별자치도 춘천시 중앙로 1,033-260-1566,37.8813,127.7298,2025-09-21 19:16:34.66741+00,2025-10-16 09:13:49.692676+00
10bd8836-08e9-44f2-8f73-f569b043a289,해남군 보건소,health_center,,JEN,,전남 해남군 해남읍 해남로 46,061-531-3700,34.5705037634418,126.612039064443,2025-09-21 19:25:46.870534+00,2025-10-16 08:38:09.544692+00
11b002a0-ef10-40c9-872f-149495fb2fa6,충청북도 증평군 보건소,health_center,,CHB,,충청북도 증평군,043-835-4000,,,2025-09-21 19:25:46.663564+00,2025-09-21 19:25:46.663564+00
1248c3c0-a664-493b-871f-ac010095d125,포항시 남구 보건소,health_center,,GYB,,경북 포항시 남구 동해안로 6119,054-270-4000,35.9924393679967,129.39623103537,2025-09-21 19:25:46.933705+00,2025-10-16 08:37:48.314952+00
129c0b80-d699-4d9c-9a9e-ad52ec642216,서울특별시 성북구 보건소,health_center,,SEO,,서울 성북구 화랑로 63,02-2241-1740,37.6027060727021,127.03952247344,2025-09-21 19:25:45.894649+00,2025-10-16 08:38:13.120739+00
14061437-b4a4-4c12-99a0-18155a34d4a5,대전응급의료지원센터,emergency_center,,DAJ,,대전광역시 서구 둔산로 100,042-280-7031,36.3504,127.3845,2025-09-21 19:16:34.66741+00,2025-10-18 02:48:36.324111+00
14be1638-a64e-4856-966e-50c33a7a71dc,김포시 보건소,health_center,,GYE,,경기 김포시 사우중로 108,031-980-5000,37.6237336666264,126.722947872868,2025-09-21 19:25:46.553242+00,2025-10-16 08:37:54.200184+00
14ca2e39-4a86-45d1-a5a1-8c6b39529bf5,세종특별자치시 보건소,health_center,,SEJ,,세종특별자치시 조치원읍 대첩로 32,044-301-2000,36.5960298270418,127.29266725237,2025-09-21 19:25:46.456357+00,2025-10-16 08:38:11.358124+00
15589d77-663d-47f9-86a0-3a5c5135e41f,안산시 단원구 보건소,health_center,,GYE,,경기 안산시 단원구 화랑로 250,031-481-3000,37.3206390150228,126.815184608872,2025-09-21 19:25:46.553242+00,2025-10-16 08:37:52.138063+00
155dd1dc-0179-4ac8-a5c2-9908585e4871,창녕군 보건소,health_center,,GYN,,경남 창녕군 창녕읍 군청1길 37,055-530-6200,35.5436575879058,128.490112626028,2025-09-21 19:25:46.996595+00,2025-10-16 08:37:59.794026+00
156d0326-3655-40ea-aa60-b07cb44ad919,대전광역시 유성구 보건소,health_center,,DAJ,,대전 유성구 박산로 177,042-611-5000,36.3539148619379,127.328634651321,2025-09-21 19:25:46.330268+00,2025-10-16 08:37:39.24798+00
1571b3bf-1d32-4e67-9934-19b5c2657fb9,울산광역시 동구 보건소,health_center,,ULS,,울산 동구 봉수로 155,052-209-4000,35.5065156628068,129.41764606722,2025-09-21 19:25:46.384918+00,2025-10-16 08:38:17.150029+00
1621ceb2-d4b4-44ff-9935-f0481850f838,서울특별시 은평구 보건소,health_center,,SEO,,서울 은평구 은평로 195,02-351-8114,37.6024569702276,126.928823550033,2025-09-21 19:25:45.894649+00,2025-10-16 08:38:13.430925+00
165da9c8-9c65-4061-8b1c-2ee14c2e603e,양주시 보건소,health_center,,GYE,,경기 양주시 부흥로 1533,031-8082-7000,37.785574645554,127.046629724286,2025-09-21 19:25:46.553242+00,2025-10-16 08:37:56.374425+00
1759c537-60fa-45fa-87c3-a9af81d2c883,고흥군 보건소,health_center,,JEN,,전남 고흥군 고흥읍 등암3길 5,061-830-5500,34.5925208237431,127.268528419636,2025-09-21 19:25:46.870534+00,2025-10-16 08:38:07.990909+00
194fe45c-7b13-4d5b-85e2-68aa8dea27fe,부산광역시 사상구 보건소,health_center,,BUS,,부산 사상구 학감대로 242,051-310-4791,35.152440785673,128.992129793942,2025-09-21 19:25:46.006943+00,2025-10-16 08:37:35.251222+00
1be9e940-8c7d-42fe-98c4-66d3a11a4db7,완도군 보건소,health_center,,JEN,,전라남도 완도군,061-550-5800,,,2025-09-21 19:25:46.870534+00,2025-09-21 19:25:46.870534+00
1c198151-7284-42a7-b1bc-6ddfd62c6f78,청송군 보건소,health_center,,GYB,,경북 청송군 청송읍 의료원길 19,054-870-7000,36.4310334132112,129.052651854626,2025-09-21 19:25:46.933705+00,2025-10-16 08:37:48.582798+00
1c254302-be41-4760-b897-37d64173aea9,서울특별시 서대문구 보건소,health_center,,SEO,,서울 서대문구 연희로 242,02-330-1801,37.5786101638561,126.936272726327,2025-09-21 19:25:45.894649+00,2025-10-16 08:38:13.530579+00
1cd99216-0b9e-497a-a93c-e6ec674f2c25,부산광역시,province,,BUS,,,,,,2025-09-08 15:33:17.099256+00,2025-09-08 15:33:17.099256+00
1d71f4cd-aefa-4478-8fec-fda1837ab8fc,대구광역시 달성군 보건소,health_center,,DAE,,대구 달성군 현풍읍 현풍중앙로 27,053-668-3000,35.6919911725353,128.446226951311,2025-09-21 19:25:46.124943+00,2025-10-16 08:37:38.423735+00
1ef2ec5c-45cd-406e-a0aa-d44675ba3d39,충청북도 영동군 보건소,health_center,,CHB,,충청북도 영동군,043-740-5600,,,2025-09-21 19:25:46.663564+00,2025-09-21 19:25:46.663564+00
1ff3bcc7-8d10-45a3-b9fc-27811726b20d,오산시 보건소,health_center,,GYE,,경기 오산시 경기동로 59,031-8036-6000,37.1594408576603,127.077820014478,2025-09-21 19:25:46.553242+00,2025-10-16 08:37:52.652673+00
21ab479b-c77b-4615-8972-9b3951d6f4e1,충청북도 청주시 서원구 보건소,health_center,,CHB,,충청북도 청주시 서원구,043-201-3200,,,2025-09-21 19:25:46.663564+00,2025-09-21 19:25:46.663564+00
221086bd-ca7f-40f0-9839-70e4e87f8b38,서울특별시 성동구 보건소,health_center,,SEO,,서울 성동구 마장로23길 10,02-2286-7000,37.5670917604829,127.033210231235,2025-09-21 19:25:45.894649+00,2025-10-16 08:38:11.776009+00
22be4384-d6f0-4161-8888-ff6dd0eb1af6,익산시 보건소,health_center,,JEB,,전북특별자치도 익산시 무왕로 975,063-859-4000,35.9610560054146,126.966415395044,2025-09-21 19:25:46.811478+00,2025-10-16 08:38:03.593891+00
22d2fd8d-9621-449c-85d5-0608413dbb0d,밀양시 보건소,health_center,,GYN,,경남 밀양시 삼문중앙로 41,055-359-5000,35.4857132334172,128.756131969927,2025-09-21 19:25:46.996595+00,2025-10-16 08:37:58.324717+00
2323d2f3-3b33-47e9-9d19-1c810e48fadd,영암군 보건소,health_center,,JEN,,전남 영암군 영암읍 오리정길 39,061-470-6500,34.7950316972875,126.703610429575,2025-09-21 19:25:46.870534+00,2025-10-16 08:38:09.626215+00
239c2cc7-48e2-47f1-a710-516b46e880fe,충청남도 금산군 보건소,health_center,,CHN,,충청남도 금산군,041-750-4000,,,2025-09-21 19:25:46.737648+00,2025-09-21 19:25:46.737648+00
23bbba88-1903-433a-996f-115b2096af36,장흥군 보건소,health_center,,JEN,,전남 장흥군 장흥읍 흥성로 49,061-860-0500,34.6764712499911,126.90830372584,2025-09-21 19:25:46.870534+00,2025-10-16 08:38:11.262629+00
2452d936-6707-48b3-ad52-a3a91b1ab102,성남시 수정구 보건소,health_center,,GYE,,경기 성남시 수정구 수정로 218,031-729-3000,37.4442862018693,127.14415456771,2025-09-21 19:25:46.553242+00,2025-10-16 08:37:50.113653+00
260ebe35-f03f-414b-9c62-db8d291b2e13,인천광역시 남동구 보건소,health_center,,INC,,인천 남동구 소래로 633,032-453-2000,37.4474046753868,126.730705510279,2025-09-21 19:25:46.199323+00,2025-10-16 08:38:01.783193+00
27b9a232-820e-4384-8229-6617f98870c5,수원시 팔달구 보건소,health_center,,GYE,,경기 수원시 팔달구 팔달산로 6,031-228-5000,37.2714806229761,127.012528438455,2025-09-21 19:25:46.553242+00,2025-10-16 08:37:48.76455+00
29992fb4-66b3-42d5-8ed2-251ee61532b0,완주군 보건소,health_center,,JEB,,전북특별자치도 완주군 삼례읍 삼봉8로 10-10,063-290-3000,35.921920818396,127.122024316285,2025-09-21 19:25:46.811478+00,2025-10-16 08:38:03.88926+00
2a9fa16a-9c7a-449e-b7b7-2f931a53f89b,정읍시 보건소,health_center,,JEB,,전북특별자치도 정읍시 수성1로 61,063-539-6000,35.5779906290071,126.854529329203,2025-09-21 19:25:46.811478+00,2025-10-16 08:38:03.691115+00
2b45733c-2657-4370-824f-ec3ce4f9fea3,강진군 보건소,health_center,,JEN,,전남 강진군 강진읍 목리길 11,061-430-3500,34.6381360159331,126.775513376231,2025-09-21 19:25:46.870534+00,2025-10-16 08:38:09.441636+00
302b456c-18df-4166-ae5e-3302a2ac230d,영양군 보건소,health_center,,GYB,,경북 영양군 영양읍 동서대로 82,054-680-5100,36.6619879890115,129.118046630262,2025-09-21 19:25:46.933705+00,2025-10-16 08:37:46.571269+00
32304c9b-66f8-4e84-a15d-f1178aa597a7,수원시 권선구 보건소,health_center,,GYE,,경기 수원시 권선구 호매실로 22-50,031-228-6000,37.2587442401435,126.971128120166,2025-09-21 19:25:46.553242+00,2025-10-16 08:37:50.031619+00
3234708e-188e-4109-83d9-68a9888f68e4,울산광역시 남구 보건소,health_center,,ULS,,울산 남구 삼산중로 132,052-226-2000,35.5453576474481,129.336332644502,2025-09-21 19:25:46.384918+00,2025-10-16 08:38:17.051041+00
33543e05-5962-4749-a592-1826a31517cb,광명시 보건소,health_center,,GYE,,경기 광명시 오리로 613,02-2680-2000,37.4566775186516,126.87884356633,2025-09-21 19:25:46.553242+00,2025-10-16 08:37:52.059582+00
33f07e09-078b-4cf4-a38f-ee49e1871d2d,신안군 보건소,health_center,,JEN,,전남 신안군 압해읍 신장리 463-17,061-240-8800,34.8336238166562,126.352728758638,2025-09-21 19:25:46.870534+00,2025-10-16 08:38:11.072435+00
348f15e3-fe59-4d45-93fc-d185e52483ff,충청남도 부여군 보건소,health_center,,CHN,,충청남도 부여군,041-830-2000,,,2025-09-21 19:25:46.737648+00,2025-09-21 19:25:46.737648+00
34d5cc8a-4186-4cee-9641-eea39d592643,울진군 보건소,health_center,,GYB,,경북 울진군 울진읍 읍내8길 61-8,054-789-5000,36.99620547579,129.404663006507,2025-09-21 19:25:46.933705+00,2025-10-16 08:37:48.136734+00
34ef9c71-f80c-44f2-aa43-dd40a4716c62,충청남도 서산시 보건소,health_center,,CHN,,충청남도 서산시,041-660-2000,,,2025-09-21 19:25:46.737648+00,2025-09-21 19:25:46.737648+00
36935ce7-4f12-45a4-982b-8fa975eb18d5,광주광역시 남구 보건소,health_center,,GWA,,광주 남구 봉선로 1,062-607-4000,35.1329956545989,126.902611615916,2025-09-21 19:25:46.258924+00,2025-10-16 08:37:43.081656+00
36d84abd-7348-40d7-8d34-50125b76f707,함양군 보건소,health_center,,GYN,,경남 함양군 함양읍 한들로 141,055-960-5300,35.5196714548532,127.731792628408,2025-09-21 19:25:46.996595+00,2025-10-16 08:38:00.290736+00
374b9ec5-6354-422d-bc66-b5e47f038f22,서귀포시 서부보건소,health_center,,JEJ,,제주특별자치도 서귀포시 대정읍 최남단해안로15번길 12,064-760-6200,33.2186549923164,126.25324612568,2025-09-21 19:25:47.043746+00,2025-10-16 08:38:07.292754+00
37f21a61-002c-4885-b8e2-454b010a2807,제주시 보건소,health_center,,JEJ,,제주특별자치도 제주시 연삼로 264,064-728-4100,33.4915801482532,126.520272716954,2025-09-21 19:25:47.043746+00,2025-10-16 08:38:05.836838+00
38620012-d210-469f-899e-cc92628b9186,함안군 보건소,health_center,,GYN,,경남 함안군 가야읍 중앙남4길 10,055-580-3000,35.2757183134756,128.410270190738,2025-09-21 19:25:46.996595+00,2025-10-16 08:37:59.696762+00
39ba1b1a-5af4-48fe-bb66-6f06efd54b35,성남시 중원구 보건소,health_center,,GYE,,경기 성남시 중원구 금상로 137,031-729-3500,37.4418821925168,127.170621800812,2025-09-21 19:25:46.553242+00,2025-10-16 08:37:55.855407+00
3a35f1a4-0dea-42aa-9ec6-0ee3c77f4784,경기도,province,,GYE,,,,,,2025-09-08 15:33:17.099256+00,2025-09-08 15:33:17.099256+00
3b9dc696-b6c6-4408-883f-afdfc0756a44,창원시 마산합포구 보건소,health_center,,GYN,,경남 창원시 마산합포구 월영동북로 15,055-225-6000,35.1823941335143,128.562889595226,2025-09-21 19:25:46.996595+00,2025-10-16 08:37:57.734395+00
3c0c7c86-8688-448b-919b-9211d36c2952,화순군 보건소,health_center,,JEN,,전남 화순군 화순읍 쌍충로 62,061-379-5300,35.0574158136352,126.98225912426,2025-09-21 19:25:46.870534+00,2025-10-16 08:38:09.206556+00
3cb5596c-ddbe-460b-81ff-117e3538cf60,부산광역시 강서구 보건소,health_center,,BUS,,부산 강서구 공항로811번길 10,051-970-4000,35.1805425788658,128.957066854015,2025-09-21 19:25:46.006943+00,2025-10-16 08:37:35.528634+00
3cd1af79-7c9c-47ff-b927-365805396645,원주시 보건소,health_center,,GAN,,강원특별자치도 원주시 원일로 139,033-737-4000,37.351524374393,127.946803190331,2025-09-21 19:25:46.618973+00,2025-10-16 08:37:40.422366+00
3d2e26c8-d383-4b86-ab55-cdde5979f91c,연천군 보건소,health_center,,GYE,,경기 연천군 전곡읍 은대성로 95,031-839-4000,38.023525424083,127.060987832707,2025-09-21 19:25:46.553242+00,2025-10-16 08:37:55.767467+00
3e65939c-ab91-4fa6-a9bc-de0a3d6c0e3b,부산광역시 해운대구 보건소,health_center,,BUS,,부산 해운대구 양운로37번길 59,051-749-4000,35.1641122033114,129.178662018177,2025-09-21 19:25:46.006943+00,2025-10-16 08:37:33.79022+00
3e9662a1-44a0-42e0-bf08-42bb3528c282,광주광역시 서구 보건소,health_center,,GWA,,광주 서구 경열로 33,062-350-4000,35.1522999463388,126.88978335186,2025-09-21 19:25:46.258924+00,2025-10-16 08:37:42.983128+00
405548d6-e7a6-4bea-a285-2341cf1b7304,충청북도 청주시 청원구 보건소,health_center,,CHB,,충청북도 청주시 청원구,043-201-3600,,,2025-09-21 19:25:46.663564+00,2025-09-21 19:25:46.663564+00
4233abed-577b-480c-a514-898033dc8117,양구군 보건소,health_center,,GAN,,강원특별자치도 양구군 양구읍 관공서로 42,033-481-2000,38.1098671740406,127.989187169649,2025-09-21 19:25:46.618973+00,2025-10-16 08:37:42.34396+00
42c5a61f-1e39-41ea-a8ca-f2805a5a7e0f,충북응급의료지원센터,emergency_center,,CHB,,충청북도 청주시 상당구 상당로 82,043-278-0119,36.6357,127.4914,2025-09-21 19:16:34.66741+00,2025-10-16 08:45:15.662923+00
431dc7a1-c207-4590-85df-ba2c15c3ff03,충청북도 청주시 상당구 보건소,health_center,,CHB,,충청북도 청주시 상당구,043-201-3000,,,2025-09-21 19:25:46.663564+00,2025-09-21 19:25:46.663564+00
4378d522-508e-4b90-8d1e-77a829977519,서귀포시 보건소,health_center,,JEJ,,제주특별자치도 서귀포시 중앙로101번길 52,064-760-6000,33.2534103162917,126.555081110027,2025-09-21 19:25:47.043746+00,2025-10-16 08:38:06.117553+00
4395d547-d4e5-4467-86bd-949b577c1e4c,충청북도 진천군 보건소,health_center,,CHB,,충청북도 진천군,043-539-7000,,,2025-09-21 19:25:46.663564+00,2025-09-21 19:25:46.663564+00
441185c3-ec03-4d71-a737-eef51ac02358,인천광역시,province,,INC,,,,,,2025-09-08 15:33:17.099256+00,2025-09-08 15:33:17.099256+00
4423fd9c-9186-42e8-83fa-02b927259666,인제군 보건소,health_center,,GAN,,강원특별자치도 인제군 인제읍 인제로140번길 34,033-461-2000,38.0632918788131,128.168544632735,2025-09-21 19:25:46.618973+00,2025-10-16 08:37:42.431069+00
4484a5f8-2d05-484c-a787-e1e4ac145280,양산시 보건소,health_center,,GYN,,경남 양산시 삽량로 169,055-392-2800,35.3357377933616,129.024965926226,2025-09-21 19:25:46.996595+00,2025-10-16 08:37:59.528318+00
45e99c24-049d-49e8-9449-19dc24d87abf,곡성군 보건소,health_center,,JEN,,전남 곡성군 곡성읍 곡성로 854,061-360-8500,35.2788250054247,127.296820445932,2025-09-21 19:25:46.870534+00,2025-10-16 08:38:11.165823+00
4713aa16-027e-47de-86f8-c61a0beff6ee,용인시 기흥구 보건소,health_center,,GYE,,경기 용인시 기흥구 신갈로58번길 11,031-324-6000,37.2726084304598,127.106398590284,2025-09-21 19:25:46.553242+00,2025-10-16 08:37:55.954294+00
47665d65-e24c-4be0-9e2f-5acf1a6a8678,대전광역시,province,,DAJ,,,,,,2025-09-08 15:33:17.099256+00,2025-09-08 15:33:17.099256+00
4a4a2d5a-4949-4a38-8f2e-800577101bc5,부산광역시 기장군 보건소,health_center,,BUS,,부산 기장군 정관읍 용수로 11,051-709-4796,35.3252690577853,129.179306532224,2025-09-21 19:25:46.006943+00,2025-10-16 08:37:35.357286+00
4a91c018-a93d-401e-bca9-b7958ad04dd1,서울특별시 강동구 보건소,health_center,,SEO,,서울 강동구 성내로 45,02-3425-8500,37.5292687705028,127.125614688949,2025-09-21 19:25:45.894649+00,2025-10-16 08:38:15.716126+00
4b00b999-4b55-4f01-ac56-b9aeb7463659,경주시 보건소,health_center,,GYB,,경북 경주시 양정로 300,054-760-2000,35.8594632340342,129.224628911504,2025-09-21 19:25:46.933705+00,2025-10-16 08:37:44.661459+00
4cfba197-234a-4b98-a9ef-c5411621a523,영덕군 보건소,health_center,,GYB,,경북 영덕군 영덕읍 군청길 53,054-730-6400,36.4136784800628,129.373679387887,2025-09-21 19:25:46.933705+00,2025-10-16 08:37:46.668444+00
4d926461-9f17-4d16-b7ce-e0e3a602a029,대구광역시 남구 보건소,health_center,,DAE,,대구 남구 영선길 34,053-664-3000,35.8539373157568,128.591532044857,2025-09-21 19:25:46.124943+00,2025-10-16 08:37:38.789325+00
4e45923c-1015-4869-93a9-fd528818ca01,광주시 보건소,health_center,,GYE,,경기 광주시 파발로 194,031-760-2000,37.4165343524456,127.250337058254,2025-09-21 19:25:46.553242+00,2025-10-16 08:37:54.42336+00
4e820996-e6a6-4755-aa2e-dcc8df65706c,충청남도 당진시 보건소,health_center,,CHN,,충청남도 당진시,041-360-6000,,,2025-09-21 19:25:46.737648+00,2025-09-21 19:25:46.737648+00
4f8e6fb9-320e-4406-b23b-68760bc102bf,통영시 보건소,health_center,,GYN,,경남 통영시 안개4길 108,055-650-6000,34.8598083107171,128.432017587554,2025-09-21 19:25:46.996595+00,2025-10-16 08:37:58.057338+00
4fc357ee-ccf9-4105-a9b9-4336762bbb36,충청북도 단양군 보건소,health_center,,CHB,,충청북도 단양군,043-420-3200,,,2025-09-21 19:25:46.663564+00,2025-09-21 19:25:46.663564+00
5084d1b9-c659-4075-a7e6-d89499c2ef6b,의정부시 보건소,health_center,,GYE,,경기 의정부시 범골로 131,031-870-6000,37.7361520457148,127.039516159949,2025-09-21 19:25:46.553242+00,2025-10-16 08:37:52.301236+00
508cb853-ea24-42b4-bf0a-8af22d416e7d,하동군 보건소,health_center,,GYN,,경남 하동군 하동읍 군청로 31,055-880-6600,35.0669684971065,127.752760812478,2025-09-21 19:25:46.996595+00,2025-10-16 08:38:00.091446+00
51961d8a-1ad2-4394-9a9e-507cf6284057,인천광역시 옹진군 보건소,health_center,,INC,,인천 옹진군 북도면 시도로 76,032-899-3000,37.5327787345296,126.429668266432,2025-09-21 19:25:46.199323+00,2025-10-16 08:38:02.132426+00
52be21cb-5fd9-427a-8eb6-1042ba1686d8,양양군 보건소,health_center,,GAN,,강원특별자치도 양양군 양양읍 양양로 9-5,033-670-2000,38.0777773464954,128.627449093264,2025-09-21 19:25:46.618973+00,2025-10-16 08:37:42.880296+00
55b0e4f8-c8c9-46f4-b8d3-57bb013ccddd,거창군 보건소,health_center,,GYN,,경남 거창군 거창읍 거함대로 3079,055-940-8300,35.6810355242326,127.89847443029,2025-09-21 19:25:46.996595+00,2025-10-16 08:38:00.373892+00
56456c33-fa39-47a5-a98a-75cfcd3fe127,부산광역시 금정구 보건소,health_center,,BUS,,부산 금정구 중앙대로 1777,051-519-4000,35.2420536771383,129.092454562246,2025-09-21 19:25:46.006943+00,2025-10-16 08:37:33.983112+00
581d6448-7dea-40ad-b7b4-6e7b91e2b3e4,인천광역시 서구 보건소,health_center,,INC,,인천 서구 탁옥로 39,032-560-5000,37.5444725790857,126.673891709598,2025-09-21 19:25:46.199323+00,2025-10-16 08:38:02.036194+00
58666f9a-ee67-408e-bf0d-ea24c99f60a7,함평군 보건소,health_center,,JEN,,전남 함평군 함평읍 중앙길 54-8,061-320-2400,35.062390136102,126.524298530004,2025-09-21 19:25:46.870534+00,2025-10-16 08:38:09.807724+00
586c43f7-4c3f-4b83-9ab6-ec16594483c1,영천시 보건소,health_center,,GYB,,경북 영천시 옛군청1길 31,054-339-7000,35.9686005110324,128.932474375751,2025-09-21 19:25:46.933705+00,2025-10-16 08:37:45.112159+00
59c7d054-19b0-405e-8085-d575cbae2c61,서울특별시 종로구 보건소,health_center,,SEO,,서울 종로구 자하문로19길 36,02-2148-3500,37.581830891506,126.969224101056,2025-09-21 19:25:45.894649+00,2025-10-16 08:38:11.587081+00
5a44adfb-9547-4e83-b0fb-001f4bf4ab3b,울릉군 보건소,health_center,,GYB,,경북 울릉군 울릉읍 울릉순환로 396-18,054-790-6800,37.4858862895377,130.899496300876,2025-09-21 19:25:46.933705+00,2025-10-16 08:37:48.219739+00
5b69ae2c-aecd-4ee9-bb5f-c699d82ff961,서울특별시 동대문구 보건소,health_center,,SEO,,서울 동대문구 천호대로 145,02-2127-5000,37.5746993851423,127.040223107039,2025-09-21 19:25:45.894649+00,2025-10-16 08:38:12.932436+00
5bf7c408-4282-4a8f-839f-e975c03c027a,서울특별시 영등포구 보건소,health_center,,SEO,,서울 영등포구 당산로 123,02-2670-3114,37.5263484763681,126.895504665117,2025-09-21 19:25:45.894649+00,2025-10-16 08:38:15.072197+00
5cdc8919-804f-4c9c-bd05-907e69f0a2a6,부산광역시 동구 보건소,health_center,,BUS,,부산 동구 구청로 1,051-440-4000,35.1292781709859,129.044899096536,2025-09-21 19:25:46.006943+00,2025-10-16 08:37:33.336287+00
5d7412dc-0b7f-4bb5-bb28-e2cf2e191da4,진주시 보건소,health_center,,GYN,,경남 진주시 월아산로 2026,055-749-5700,35.213556074953,128.121447494526,2025-09-21 19:25:46.996595+00,2025-10-16 08:37:57.970169+00
5d9f5a35-f90f-4870-8420-318c94be3542,충청남도 보령시 보건소,health_center,,CHN,,충청남도 보령시,041-930-3000,,,2025-09-21 19:25:46.737648+00,2025-09-21 19:25:46.737648+00
5f54bbf6-09c0-4148-af71-00bcd1895b05,수원시 장안구 보건소,health_center,,GYE,,경기 수원시 장안구 송원로 101,031-228-5500,37.3043687448515,127.0102869959,2025-09-21 19:25:46.553242+00,2025-10-16 08:37:48.939722+00
5f6b65c5-95e1-470b-bd7b-deece23318a4,고성군 보건소,health_center,,GAN,,경남 고성군 고성읍 남포로79번길 103-3,033-681-4000,34.9694566156235,128.315383433273,2025-09-21 19:25:46.618973+00,2025-10-16 08:37:42.51903+00
5f6f84fe-ea6b-4e51-89d0-b332b55c0daa,광주광역시 북구 보건소,health_center,,GWA,,광주 북구 우치로 65,062-410-8000,35.1733442185057,126.912140311456,2025-09-21 19:25:46.258924+00,2025-10-16 08:37:44.291238+00
603a0bd2-9277-41bb-b935-ba2282ceaae1,전라북도,province,,JEB,,,,,,2025-09-08 15:33:17.099256+00,2025-09-08 15:33:17.099256+00
61282b77-3e64-42df-9c8b-a0a41b527ab8,경상북도,province,,GYB,,,,,,2025-09-08 15:33:17.099256+00,2025-09-08 15:33:17.099256+00
62ca057d-9409-4bff-92a9-80354fb88e3c,대구광역시 북구 보건소,health_center,,DAE,,대구 북구 성북로 49,053-665-3000,35.8918236510153,128.588910177785,2025-09-21 19:25:46.124943+00,2025-10-16 08:37:38.615402+00
6396c58a-c0a6-4542-b562-c5b1bf1fedcf,진안군 보건소,health_center,,JEB,,전북특별자치도 진안군 진안읍 진무로 1189,063-430-8500,35.797306705535,127.434758343479,2025-09-21 19:25:46.811478+00,2025-10-16 08:38:03.975009+00
6497d805-f784-4256-a230-e998ecc53e69,안동시 보건소,health_center,,GYB,,경북 안동시 서동문로 165,054-840-5900,36.5670472957924,128.73031541402,2025-09-21 19:25:46.933705+00,2025-10-16 08:37:44.856285+00
65567ff8-aba2-474a-aa9b-89a212111159,화성시 보건소,health_center,,GYE,,경기 화성시 향남읍 3.1만세로 1055,031-5189-3000,37.1292478616241,126.904547332145,2025-09-21 19:25:46.553242+00,2025-10-16 08:37:54.296978+00
663e2e36-d2d4-4ce3-a8fa-822e5d070d4d,태백시 보건소,health_center,,GAN,,강원특별자치도 태백시 태백로 905,033-550-3000,37.1766070278333,128.992461319242,2025-09-21 19:25:46.618973+00,2025-10-16 08:37:40.614521+00
679cdcea-321e-4093-b410-b61989ccc8f1,충청남도 태안군 보건소,health_center,,CHN,,충청남도 태안군,041-671-5000,,,2025-09-21 19:25:46.737648+00,2025-09-21 19:25:46.737648+00
67d36310-e87d-4be1-8e8c-90699da50e18,영주시 보건소,health_center,,GYB,,경북 영주시 시청로1번길 19,054-631-3000,36.8061404110081,128.621666742344,2025-09-21 19:25:46.933705+00,2025-10-16 08:37:45.030346+00
694780f4-f962-449d-89b1-41d0c1f60207,남해군 보건소,health_center,,GYN,,경남 남해군 남해읍 선소로 6,055-860-8700,34.8449341564131,127.898646120558,2025-09-21 19:25:46.996595+00,2025-10-16 08:37:59.990932+00
6984dddb-f7d1-460b-b77b-c4eea8a7e6a3,충청남도 천안시 서북구 보건소,health_center,,CHN,,충청남도 천안시 서북구,041-521-5900,,,2025-09-21 19:25:46.737648+00,2025-09-21 19:25:46.737648+00
699ad859-2aad-4cd5-99de-05a80cc2a4d7,의왕시 보건소,health_center,,GYE,,경기 의왕시 오봉로 34,031-345-3000,37.3437680785781,126.972113551624,2025-09-21 19:25:46.553242+00,2025-10-16 08:37:53.834665+00
69c66550-c07e-4c07-b7c3-e35029bc181c,부산광역시 연제구 보건소,health_center,,BUS,,부산 연제구 연제로 2,051-665-4000,35.1768314143914,129.079103192178,2025-09-21 19:25:46.006943+00,2025-10-16 08:37:35.082766+00
6a1c95ce-06f7-4a70-910e-cb0e5b40ebac,서울특별시 마포구 보건소,health_center,,SEO,,서울 마포구 월드컵로 212,02-3153-9020,37.5669493227109,126.90185909738,2025-09-21 19:25:45.894649+00,2025-10-16 08:38:13.628802+00
6b399603-7ee1-43bf-a5c0-c5a540252e7c,가평군 보건소,health_center,,GYE,,경기 가평군 가평읍 가화로 155-18,031-580-2000,37.833483239384,127.510729270569,2025-09-21 19:25:46.553242+00,2025-10-16 08:37:54.673797+00
6ba41314-532d-44de-bcb1-b91fe92695fa,양평군 보건소,health_center,,GYE,,경기 양평군 양평읍 마유산로 17,031-770-3000,37.4970141909477,127.486677240257,2025-09-21 19:25:46.553242+00,2025-10-16 08:37:56.454989+00
6c0362c4-0524-4f2d-9cbb-38a99bcdd3ff,서울특별시 금천구 보건소,health_center,,SEO,,서울 금천구 시흥대로73길 70,02-2627-2114,37.4570723447945,126.896065662408,2025-09-21 19:25:45.894649+00,2025-10-16 08:38:14.965927+00
6d49d559-b84c-4026-a948-9ad65db9a5a4,안성시 보건소,health_center,,GYE,,경기 안성시 강변로74번길 18,031-678-5000,37.0001893307265,127.269816692254,2025-09-21 19:25:46.553242+00,2025-10-16 08:37:56.281999+00
6d90710d-a2e9-4133-9b5a-41babb006aba,서울특별시 중구 보건소,health_center,,SEO,,서울 중구 다산로39길 16,02-3396-4000,37.5645816884254,127.015087850501,2025-09-21 19:25:45.894649+00,2025-10-16 08:38:11.495625+00
6eff03be-5717-4cff-b6e0-1e1a5d90637d,충청남도 홍성군 보건소,health_center,,CHN,,충청남도 홍성군,041-630-9000,,,2025-09-21 19:25:46.737648+00,2025-09-21 19:25:46.737648+00
721784c2-0108-4d28-99c8-5beaab4ca85e,제주시 서부보건소,health_center,,JEJ,,제주특별자치도 제주시 한림읍 강구로 5,064-728-4300,33.4123373808484,126.269693395203,2025-09-21 19:25:47.043746+00,2025-10-16 08:38:06.026298+00
725cc701-c754-44f5-a2c5-8ef0468f3b87,시흥시 보건소,health_center,,GYE,,경기 시흥시 호현로 55,031-310-5000,37.4453027666834,126.784856945894,2025-09-21 19:25:46.553242+00,2025-10-16 08:37:52.746907+00
7298bd86-e210-40da-a930-a7e776beb187,대구광역시 서구 보건소,health_center,,DAE,,대구 서구 국채보상로 257,053-663-3000,35.8722241361075,128.559320158655,2025-09-21 19:25:46.124943+00,2025-10-16 08:37:37.331282+00
729ca0ad-a5e4-4408-8195-085e797f4797,여수시보건소,health_center,,JEN,,전남 여수시 시청서4길 47,061-659-4000,34.7593559452925,127.661077775924,2025-09-21 19:25:46.870534+00,2025-10-16 08:38:07.466697+00
72c0babe-61cc-44cd-93c7-bd158e64c609,서울특별시 관악구 보건소,health_center,,SEO,,서울 관악구 관악로 145,02-879-7010,37.4784727275129,126.951159303017,2025-09-21 19:25:45.894649+00,2025-10-16 08:38:15.293704+00
72c0d4f9-25d7-49d7-8436-fa5c3d98d70c,속초시 보건소,health_center,,GAN,,강원특별자치도 속초시 수복로 36,033-631-4000,38.196170600023,128.575948113414,2025-09-21 19:25:46.618973+00,2025-10-16 08:37:40.716585+00
72d79e1d-7c9c-4aed-a3a8-2383ca6f97d4,여주시 보건소,health_center,,GYE,,경기 여주시 여흥로160번길 14,031-887-3000,37.294590641072,127.64035797198,2025-09-21 19:25:46.553242+00,2025-10-16 08:37:54.580949+00
732a3da1-38cb-4363-aae9-4c2eb29fa81d,인천광역시 동구 보건소,health_center,,INC,,인천 동구 석수로 90,032-770-4000,37.4830408421912,126.625935053165,2025-09-21 19:25:46.199323+00,2025-10-16 08:38:02.236394+00
736be307-3729-4ae7-88e1-8da74ff0cebe,충남응급의료지원센터,emergency_center,,CHN,,충청남도 홍성군 홍북읍 충남대로 21,041-635-1339,36.6588,126.6728,2025-09-21 19:16:34.66741+00,2025-10-16 08:45:15.499919+00
73fc73f8-e1b5-4c80-b89b-10e8c2d49165,장수군 보건소,health_center,,JEB,,전북특별자치도 장수군 장수읍 장천로 247,063-350-2000,35.6546510021873,127.520140352838,2025-09-21 19:25:46.811478+00,2025-10-16 08:38:05.655737+00
74a1a216-d090-4132-9391-eac23d09c06e,구리시 보건소,health_center,,GYE,,경기 구리시 건원대로34번길 84,031-550-8000,37.60473184616,127.145070625981,2025-09-21 19:25:46.553242+00,2025-10-16 08:37:52.472118+00
75b20663-ff20-46d1-8400-ff45e56b0186,서울특별시 중랑구 보건소,health_center,,SEO,,서울 중랑구 봉화산로 179,02-2094-0700,37.6068747754815,127.092854674342,2025-09-21 19:25:45.894649+00,2025-10-16 08:38:13.0291+00
76570ffa-1a16-4a2a-84aa-485fe3898304,용인시 처인구 보건소,health_center,,GYE,,경기 용인시 처인구 중부대로 1199,031-324-4000,37.2409851442829,127.176129809637,2025-09-21 19:25:46.553242+00,2025-10-16 08:37:50.638213+00
7e09d466-b733-47dd-b6dd-a2f7f2116206,충청남도 논산시 보건소,health_center,,CHN,,충청남도 논산시,041-746-8000,,,2025-09-21 19:25:46.737648+00,2025-09-21 19:25:46.737648+00
7f2a5baf-7a44-45b5-b57c-1b855f506ce0,서울특별시 강남구 보건소,health_center,,SEO,,서울 강남구 선릉로 668,02-3423-7200,37.5163211205037,127.042313776113,2025-09-21 19:25:45.894649+00,2025-10-16 08:38:15.488431+00
80e1e3e4-2c29-4fc3-b295-beaf744e760e,충청북도 보은군 보건소,health_center,,CHB,,충청북도 보은군,043-540-5600,,,2025-09-21 19:25:46.663564+00,2025-09-21 19:25:46.663564+00
819d1782-ec88-4c43-9a01-5b7eb8dc9e63,부산광역시 남구 보건소,health_center,,BUS,,부산 남구 못골로 23,051-607-4000,35.1360778391427,129.084950948836,2025-09-21 19:25:46.006943+00,2025-10-16 08:37:33.618244+00
844171e2-f42a-4e1e-ba36-3661aeecffff,인천광역시 미추홀구 보건소,health_center,,INC,,인천 미추홀구 주안서로 25,032-880-4000,37.461096856063,126.677443864569,2025-09-21 19:25:46.199323+00,2025-10-16 08:38:01.627628+00
845cecaa-9ec9-4979-8d24-3cd069c11acf,제주시 동부보건소,health_center,,JEJ,,제주특별자치도 제주시 구좌읍 김녕로14길 6,064-728-4200,33.5543504469481,126.751328133149,2025-09-21 19:25:47.043746+00,2025-10-16 08:38:05.93631+00
859721de-aca3-4a58-b563-65ec91bfe84c,서울특별시 용산구 보건소,health_center,,SEO,,서울 용산구 녹사평대로 150,02-2199-8090,37.5325878154989,126.990609478932,2025-09-21 19:25:45.894649+00,2025-10-16 08:38:11.681163+00
8a0eedaa-9b07-40ed-a3f5-f1eff6d57349,장성군 보건소,health_center,,JEN,,전남 장성군 장성읍 청운11길 13,061-390-8300,35.3045428541711,126.782453246772,2025-09-21 19:25:46.870534+00,2025-10-16 08:38:10.976743+00
8a3e41f7-2ad6-428a-8f39-a2a4add3fc0a,경남응급의료지원센터,emergency_center,,GYN,,경상남도 창원시 의창구 중앙대로 300,055-211-7981,35.2383,128.6924,2025-09-21 19:16:34.66741+00,2025-10-16 08:45:13.281617+00
8a9a39a9-20d7-47ba-aa14-7d6be9546457,강릉시 보건소,health_center,,GAN,,강원특별자치도 강릉시 남부로17번길 38,033-660-3000,37.7427769838198,128.882635912032,2025-09-21 19:25:46.618973+00,2025-10-16 08:37:40.529812+00
8bb3b35b-8a57-4c85-8b81-8565f77021f8,울산광역시 중구 보건소,health_center,,ULS,,울산 중구 외솔큰길 225,052-290-4200,35.5695296773319,129.350400858731,2025-09-21 19:25:46.384918+00,2025-10-16 08:38:16.944915+00
8bc84848-6b8d-4dda-9131-1d9a37be87c1,남원시 보건소,health_center,,JEB,,전북특별자치도 남원시 요천로 1285,063-620-7900,35.3975667628121,127.364415575929,2025-09-21 19:25:46.811478+00,2025-10-16 08:38:03.804661+00
8bfee6ed-bda4-49e4-8c91-d3e888aaac8b,충청남도 예산군 보건소,health_center,,CHN,,충청남도 예산군,041-339-8000,,,2025-09-21 19:25:46.737648+00,2025-09-21 19:25:46.737648+00
8d25aa8b-1129-4ea2-81a8-684237f4255a,경산시 보건소,health_center,,GYB,,경북 경산시 남매로 158,053-810-6000,35.8250517846561,128.743371800733,2025-09-21 19:25:46.933705+00,2025-10-16 08:37:46.332536+00
8d4b34c2-941b-4fa8-85c9-c113883b76d7,군산시 보건소,health_center,,JEB,,전북특별자치도 군산시 수송동로 58,063-463-5000,35.9647323747766,126.72018070072,2025-09-21 19:25:46.811478+00,2025-10-16 08:38:03.515633+00
8f3e256f-8ce1-4666-96e6-8188597c5805,울산광역시,province,,ULS,,,,,,2025-09-08 15:33:17.099256+00,2025-09-08 15:33:17.099256+00
8f466c59-9db5-490a-a079-ca44c997fe81,경기응급의료지원센터,emergency_center,,GYE,,경기도 수원시 영통구 도청로 30,031-888-5119,37.2636,127.0286,2025-09-21 19:16:34.66741+00,2025-10-16 08:45:13.117433+00
8fff6ca8-be60-41a2-b5c7-7e5131f489c4,평택시 보건소,health_center,,GYE,,경기 평택시 평택5로 56,031-8024-5000,36.9909235084645,127.111691157601,2025-09-21 19:25:46.553242+00,2025-10-16 08:37:56.043006+00
900fd704-4a7d-45c4-9f64-cab0706dd12a,대구응급의료지원센터,emergency_center,,DAE,,대구광역시 중구 공평로 88,053-320-0119,35.8714,128.6014,2025-09-21 19:16:34.66741+00,2025-10-16 08:45:13.760772+00
91258933-2d34-4a18-880f-647162cc7f11,서울특별시 강서구 보건소,health_center,,SEO,,서울 강서구 공항대로 561,02-2600-5800,37.5496156931783,126.868276504378,2025-09-21 19:25:45.894649+00,2025-10-16 08:38:13.737858+00
91620201-7a5a-49a1-bf27-cb7cb4591fa7,울산응급의료지원센터,emergency_center,,ULS,,울산광역시 남구 중앙로 201,052-290-4280,35.5384,129.3114,2025-09-21 19:16:34.66741+00,2025-10-16 08:45:14.560968+00
9162c029-68f8-4983-84e8-07f6c9303248,서울특별시 양천구 보건소,health_center,,SEO,,서울 양천구 중앙로29가길 12,02-2620-3114,37.5177891232472,126.850425015777,2025-09-21 19:25:45.894649+00,2025-10-16 08:38:15.832668+00
924f35ea-4cba-4e3b-b013-3732cda10865,군포시 보건소,health_center,,GYE,,경기 군포시 군포로 221,031-390-8000,37.3331502772086,126.925964063613,2025-09-21 19:25:46.553242+00,2025-10-16 08:37:56.202641+00
9264e0e7-119d-42c7-a7e4-d369e4c8dcb8,수원시 영통구 보건소,health_center,,GYE,,경기 수원시 영통구 영통로 396,031-228-8000,37.25692527352,127.069505245053,2025-09-21 19:25:46.553242+00,2025-10-16 08:37:48.860304+00
938110f8-4a00-48da-9830-2a2b97ba81e1,안양시 동안구 보건소,health_center,,GYE,,경기 안양시 동안구 평촌대로253번길 41,031-8045-4000,37.3929666958024,126.952073091956,2025-09-21 19:25:46.553242+00,2025-10-16 08:37:50.893323+00
94c48458-c9c9-4de6-9c7b-fcbb1fa69740,예천군 보건소,health_center,,GYB,,경북 예천군 예천읍 군청길 33,054-650-8000,36.657691453694,128.452945748063,2025-09-21 19:25:46.933705+00,2025-10-16 08:37:46.959033+00
9520926b-a03a-4d3e-a28c-96909fc3efb1,창원시 성산구 보건소,health_center,,GYN,,경남 창원시 성산구 중앙대로162번안길 8,055-225-5000,35.22778362302,128.685546485127,2025-09-21 19:25:46.996595+00,2025-10-16 08:37:57.636644+00
95e4864f-9e68-43e6-b832-d5c9f8a92cdf,제주특별자치도,province,,JEJ,,,,,,2025-09-08 15:33:17.099256+00,2025-09-08 15:33:17.099256+00
95fcc4e8-0043-4717-b7ee-3b3757ee5d50,이천시 보건소,health_center,,GYE,,경기 이천시 부악로 36,031-634-4000,37.2731841117843,127.433323276666,2025-09-21 19:25:46.553242+00,2025-10-16 08:37:54.101908+00
97523d3a-6eba-4856-97a4-f5cb6ec70f65,고령군 보건소,health_center,,GYB,,경북 고령군 대가야읍 왕릉로 56-5,054-950-7900,35.7252376108122,128.264907392838,2025-09-21 19:25:46.933705+00,2025-10-16 08:37:46.775723+00
986c3d57-fc1d-4745-85bc-79491222506c,대구광역시 달서구 보건소,health_center,,DAE,,대구 달서구 학산로 45,053-667-3000,35.82945387637,128.532339659773,2025-09-21 19:25:46.124943+00,2025-10-16 08:37:37.063469+00
9a3c0b5a-d155-4b86-b222-95363ed140dd,광주응급의료지원센터,emergency_center,,GWA,,광주광역시 서구 내방로 111,062-613-1339,35.1595,126.8526,2025-09-21 19:16:34.66741+00,2025-10-16 08:45:13.60311+00
9a822f10-4bc9-4f0a-97c3-8dcc615fd86a,대구광역시 동구 보건소,health_center,,DAE,,대구 동구 동촌로 79,053-662-3000,35.8881209911672,128.651217794468,2025-09-21 19:25:46.124943+00,2025-10-16 08:37:37.230509+00
9a8bdcd4-b53d-47c1-b690-f2badbd2cff4,전주시 완산구 보건소,health_center,,JEB,,전북특별자치도 전주시 완산구 전라감영로 33,063-281-6200,35.8154023620892,127.142736727424,2025-09-21 19:25:46.811478+00,2025-10-16 08:38:05.463095+00
9b392854-20a7-45a3-9d32-4cf7b1c38542,서울특별시 동작구 보건소,health_center,,SEO,,서울 동작구 만양로3길 80,02-820-1423,37.5057290275329,126.941124440036,2025-09-21 19:25:45.894649+00,2025-10-16 08:38:15.1666+00
9d675bb8-552d-4256-ae8f-a0cdd2986847,칠곡군 보건소,health_center,,GYB,,경북 칠곡군 왜관읍 관문로1길 30,054-973-1000,35.9908597455393,128.41843316845,2025-09-21 19:25:46.933705+00,2025-10-16 08:37:48.670507+00
9d9109a3-f0ec-4aa3-a625-6d623f691001,부산광역시 동래구 보건소,health_center,,BUS,,부산 동래구 명륜로187번길 56,051-555-4000,35.2114120201011,129.079853036605,2025-09-21 19:25:46.006943+00,2025-10-16 08:37:33.524808+00
9e3581e3-0fe1-425a-9be9-afbcee6acc46,합천군 보건소,health_center,,GYN,,경남 합천군 합천읍 동서로 39,055-930-3600,35.5680714302101,128.156563270541,2025-09-21 19:25:46.996595+00,2025-10-16 08:38:01.464804+00
9f26c85c-be60-42d5-8900-b2a3273b093b,전남응급의료지원센터,emergency_center,,JEN,,전라남도 무안군 삼향읍 오룡길 1,061-287-8821,34.8161,126.463,2025-09-21 19:16:34.66741+00,2025-10-16 08:45:14.880064+00
9fe2ba5a-e867-42a2-b248-e9baac2fc424,충청북도 청주시 흥덕구 보건소,health_center,,CHB,,충청북도 청주시 흥덕구,043-201-3400,,,2025-09-21 19:25:46.663564+00,2025-09-21 19:25:46.663564+00
a02dbcde-a497-4152-a78c-7f00d672826f,하남시 보건소,health_center,,GYE,,경기 하남시 대청로 10,031-790-6000,37.5390823340376,127.215529885574,2025-09-21 19:25:46.553242+00,2025-10-16 08:37:53.92293+00
a074a3c9-125a-41ec-8cc1-8a2743086a73,서울특별시 도봉구 보건소,health_center,,SEO,,서울특별시 도봉구 방학로3길 117,02-2091-4600,,,2025-09-21 19:25:45.894649+00,2025-09-21 19:25:45.894649+00
a259f912-16c3-4921-bcc4-58c14f3af9f6,광주광역시 동구 보건소,health_center,,GWA,,광주 동구 서남로 1,062-608-3000,35.1458207495444,126.923415873897,2025-09-21 19:25:46.258924+00,2025-10-16 08:37:44.179737+00
a2aeee10-0c28-411f-a80e-899a94a2389e,서울특별시 광진구 보건소,health_center,,SEO,,서울 광진구 자양동 680-63,02-450-1570,37.5358532558295,127.087742962448,2025-09-21 19:25:45.894649+00,2025-10-16 08:38:12.852304+00
a38a7e2a-7341-4b5b-ac0f-e09a0099019f,충청남도 서천군 보건소,health_center,,CHN,,충청남도 서천군,041-950-6700,,,2025-09-21 19:25:46.737648+00,2025-09-21 19:25:46.737648+00
a3d2ffb3-48fe-4d1b-a637-b6120f1c81fb,대구광역시,province,,DAE,,,,,,2025-09-08 15:33:17.099256+00,2025-09-08 15:33:17.099256+00
a3e2e27c-cb18-4087-92e0-dd391245cb60,김천시 보건소,health_center,,GYB,,경북 김천시 시청1길 221,054-421-2700,36.1395330526507,128.112855095731,2025-09-21 19:25:46.933705+00,2025-10-16 08:37:44.763995+00
a571781d-04b8-41b0-a3b4-b4ecb50e8416,김제시 보건소,health_center,,JEB,,전북특별자치도 김제시 성산길 138,063-540-1300,35.800815608781,126.88331660126,2025-09-21 19:25:46.811478+00,2025-10-16 08:38:05.551383+00
a614a52e-624e-4005-9dc7-08f2db6d71b7,청도군 보건소,health_center,,GYB,,경상북도 청도군,054-370-6400,,,2025-09-21 19:25:46.933705+00,2025-09-21 19:25:46.933705+00
a921fbed-0e44-4921-9553-e479bb1b3d1b,남양주시 보건소,health_center,,GYE,,경기 남양주시 경춘로 522,031-590-2000,37.6106205324347,127.171408606545,2025-09-21 19:25:46.553242+00,2025-10-16 08:37:52.560045+00
a9efe05f-d9bd-49ff-9da3-9fc7ad85a61c,서울특별시 강북구 보건소,health_center,,SEO,,서울 강북구 한천로 897,02-901-7600,37.6321596324333,127.038742773745,2025-09-21 19:25:45.894649+00,2025-10-16 08:38:13.229385+00
aa40194f-06ce-412d-b4bf-61e2d40a5ea3,대전광역시 중구 보건소,health_center,,DAJ,,대전 중구 산성로 63,042-288-8000,36.3080113236595,127.395083118696,2025-09-21 19:25:46.330268+00,2025-10-16 08:37:38.884665+00
aab58c8b-cd99-46ee-857f-7f96a46ca877,서귀포시 동부보건소,health_center,,JEJ,,제주특별자치도 서귀포시 남원읍 태위로 527,064-760-6100,33.2756648526324,126.703410261816,2025-09-21 19:25:47.043746+00,2025-10-16 08:38:07.206446+00
ae4cfa1f-d5d1-45d8-80c7-2603b3e72be1,대전광역시 동구 보건소,health_center,,DAJ,,대전 동구 동구청로 147,042-251-4000,36.3114013576901,127.454724781025,2025-09-21 19:25:46.330268+00,2025-10-16 08:37:39.169684+00
ae8544f5-d8c4-4415-9519-d3de43af06a4,전북응급의료지원센터,emergency_center,,JEB,,전북특별자치도 전주시 완산구 효자로 225,063-280-7031,35.8203,127.1089,2025-09-21 19:16:34.66741+00,2025-10-16 08:45:15.027763+00
aedb2463-6cbe-4980-8bc4-a2898ab88e5c,서울응급의료지원센터,emergency_center,,SEO,,서울특별시 중구 세종대로 110,02-6953-7581,37.5665,126.978,2025-09-21 19:16:34.66741+00,2025-10-16 08:45:14.237066+00
afc04b4d-b1f3-4639-8dff-ec6a4def39bb,인천광역시 부평구 보건소,health_center,,INC,,인천 부평구 부흥로 291,032-509-8000,37.4988337069768,126.724246834459,2025-09-21 19:25:46.199323+00,2025-10-16 08:38:01.860342+00
b049ac07-f52c-4e38-8e28-96a8458bc233,인천광역시 계양구 보건소,health_center,,INC,,인천 계양구 계양문화로 63,032-430-7800,37.536373419524,126.736263743863,2025-09-21 19:25:46.199323+00,2025-10-16 08:38:01.955135+00
b1424792-1fea-4160-a282-d8d95be1a5c1,무주군 보건소,health_center,,JEB,,전북특별자치도 무주군 무주읍 한풍루로 413,063-320-5200,36.0058642058326,127.67166231768,2025-09-21 19:25:46.811478+00,2025-10-16 08:38:04.075217+00
b15b23cc-7c90-484e-bbf0-7afe488ca5c1,대전광역시 대덕구 보건소,health_center,,DAJ,,대전 대덕구 석봉로38번길 55,042-608-5000,36.4450062198008,127.42629797811,2025-09-21 19:25:46.330268+00,2025-10-16 08:37:39.078658+00
b1a17740-a053-4147-bc96-949448aaa8d8,김해시 보건소,health_center,,GYN,,경남 김해시 분성로 227,055-330-4000,35.2322291986341,128.870709898014,2025-09-21 19:25:46.996595+00,2025-10-16 08:37:58.245648+00
b4f2a9cb-ae09-49f1-b653-4f126516ee1e,대구광역시 군위군 보건소,health_center,,DAE,,대구 군위군 군위읍 군청로 70,054-380-7400,36.2296601155305,128.569976766499,2025-09-21 19:25:46.124943+00,2025-10-16 08:37:38.521354+00
b5bddb05-03f1-44f5-8e94-b858356f47cc,목포시보건소,health_center,,JEN,,전남 목포시 원산로45번길 5,061-270-3000,34.8041204672468,126.373580827402,2025-09-21 19:25:46.870534+00,2025-10-16 08:38:07.379626+00
b6f522a0-b8b2-4587-b16b-9ced4c008d28,고양시 일산서구 보건소,health_center,,GYE,,경기 고양시 일산서구 일중로 54,031-8075-4200,37.684482843683,126.77580703395,2025-09-21 19:25:46.553242+00,2025-10-16 08:37:50.541817+00
b78b09f3-48ee-40df-b87b-05638b4cd13c,나주시보건소,health_center,,JEN,,전남 나주시 풍물시장2길 57-32,061-339-2000,34.9952182168777,126.708175652436,2025-09-21 19:25:46.870534+00,2025-10-16 08:38:07.637858+00
b7e9e105-c3fc-416e-b380-dd4f8f3281ab,보성군 보건소,health_center,,JEN,,전남 보성군 보성읍 송재로 153,061-850-5600,34.7702138121807,127.079040757534,2025-09-21 19:25:46.870534+00,2025-10-16 08:38:09.089006+00
b820f07e-ceca-4691-a6bf-111fd0fddbf9,부안군 보건소,health_center,,JEB,,전북특별자치도 부안군 부안읍 오리정로 124,063-580-3800,35.7227975714066,126.735542033797,2025-09-21 19:25:46.811478+00,2025-10-16 08:38:05.74389+00
b9383411-12bb-4ffe-9e61-696a88b12df9,무안군 보건소,health_center,,JEN,,전남 무안군 무안읍 면성1길 128,061-450-5000,34.9873186821282,126.472786654904,2025-09-21 19:25:46.870534+00,2025-10-16 08:38:09.71437+00
b96daf58-b480-4cce-b058-0febf2b65416,평창군 보건소,health_center,,GAN,,강원특별자치도 평창군 평창읍 노성로 11,033-330-4800,37.3689164207266,128.390752735929,2025-09-21 19:25:46.618973+00,2025-10-16 08:37:41.066712+00
bb011082-7b72-4b91-b5b8-2b2d95de824e,충청북도 음성군 보건소,health_center,,CHB,,충청북도 음성군,043-871-2000,,,2025-09-21 19:25:46.663564+00,2025-09-21 19:25:46.663564+00
bb0904d9-44c5-401d-aaf1-9746b35b949c,홍천군 보건소,health_center,,GAN,,강원특별자치도 홍천군 홍천읍 신장대로 5,033-430-4000,37.6902028028364,127.87691437468,2025-09-21 19:25:46.618973+00,2025-10-16 08:37:40.888194+00
bb66e481-946d-46fd-a55c-14fde5d154ea,서울특별시 서초구 보건소,health_center,,SEO,,서울 서초구 남부순환로 2584,02-2155-8000,37.4836228369943,127.033489832458,2025-09-21 19:25:45.894649+00,2025-10-16 08:38:15.392379+00
bc11d5dc-46df-4aef-8ec1-95d70a5a3aae,전라남도,province,,JEN,,,,,,2025-09-08 15:33:17.099256+00,2025-09-08 15:33:17.099256+00
bcba6a02-1589-4cea-a940-8e2aaa081e6e,충청남도,province,,CHN,,,,,,2025-09-08 15:33:17.099256+00,2025-09-08 15:33:17.099256+00
be8a600d-7ccb-4fda-9a6d-3fe63d8baedf,안산시 상록구 보건소,health_center,,GYE,,경기 안산시 상록구 차돌배기로1길 5,031-481-5000,37.3003320095836,126.845031130821,2025-09-21 19:25:46.553242+00,2025-10-16 08:37:52.225403+00
bebc823a-c75d-4eed-98f4-22ad75d39dd8,인천광역시 연수구 보건소,health_center,,INC,,인천 연수구 함박뫼로 13,032-749-8000,37.419131588568,126.671155425658,2025-09-21 19:25:46.199323+00,2025-10-16 08:38:01.701087+00
bf29d10a-9e54-4fa5-a875-b4eafdf10cd4,인천광역시 강화군 보건소,health_center,,INC,,인천 강화군 강화읍 충렬사로 26-1,032-930-4000,37.7370761581116,126.484794561132,2025-09-21 19:25:46.199323+00,2025-10-16 08:38:03.352118+00
bfa75d6d-41ed-4cb1-a18f-e296d666b9e5,충청남도 계룡시 보건소,health_center,,CHN,,충청남도 계룡시,042-840-3500,,,2025-09-21 19:25:46.737648+00,2025-09-21 19:25:46.737648+00
bfaf4494-aca2-42bf-a95b-0607939f5dce,서울특별시 송파구 보건소,health_center,,SEO,,서울 송파구 올림픽로 326,02-2147-3420,37.5145921056733,127.106611094532,2025-09-21 19:25:45.894649+00,2025-10-16 08:38:15.599904+00
c0d63e49-d335-4542-bdf6-a629dedab603,서울특별시 노원구 보건소,health_center,,SEO,,서울 노원구 월계로 378,02-2116-3115,37.6314381073894,127.061651596579,2025-09-21 19:25:45.894649+00,2025-10-16 08:38:13.319566+00
c2cbc1a7-cd43-4dae-9a90-228044b11f55,충청남도 천안시 동남구 보건소,health_center,,CHN,,충청남도 천안시 동남구,041-521-5000,,,2025-09-21 19:25:46.737648+00,2025-09-21 19:25:46.737648+00
c616953b-a2e0-4a6b-ba29-d35f3293852b,영광군 보건소,health_center,,JEN,,전남 영광군 영광읍 신남로4길 17,061-350-5500,35.2746398136465,126.504168304605,2025-09-21 19:25:46.870534+00,2025-10-16 08:38:09.886297+00
c69d41f5-fdf5-471e-9475-d889ca0ff580,철원군 보건소,health_center,,GAN,,강원특별자치도 철원군 갈말읍 군탄로 16,033-450-5000,38.1481249560234,127.302524892889,2025-09-21 19:25:46.618973+00,2025-10-16 08:37:42.251266+00
c8a79ec4-416b-41b9-aefb-a31c22c24b38,봉화군 보건소,health_center,,GYB,,경북 봉화군 봉화읍 봉화로 1203,054-679-6700,36.890440670104,128.742154071124,2025-09-21 19:25:46.933705+00,2025-10-16 08:37:47.046861+00
ca9be01b-5f3d-487b-9163-82a1e7de3512,순천시보건소,health_center,,JEN,,전남 순천시 중앙로 232,061-749-3000,34.9665211021788,127.486885860985,2025-09-21 19:25:46.870534+00,2025-10-16 08:38:07.543117+00
cad4f9e4-96a2-4b63-b1c1-7f5b2e6dd318,성주군 보건소,health_center,,GYB,,경북 성주군 성주읍 성밖숲길 12,054-930-8000,35.9173831710617,128.278692748489,2025-09-21 19:25:46.933705+00,2025-10-16 08:37:46.869317+00
ccdff54d-cd67-4ce6-ae92-2c4de40e7502,서울특별시 구로구 보건소,health_center,,SEO,,서울 구로구 구로중앙로28길 66,02-860-3200,37.5001092251688,126.889325829705,2025-09-21 19:25:45.894649+00,2025-10-16 08:38:14.846999+00
ccf41222-f8ad-4c38-a060-c261c5df1a41,동두천시 보건소,health_center,,GYE,,경기 동두천시 중앙로 167,031-860-3000,37.8966186956022,127.051685155156,2025-09-21 19:25:46.553242+00,2025-10-16 08:37:56.121004+00
cd329449-c8da-4dbe-8b86-f8f547bc8fcd,경북응급의료지원센터,emergency_center,,GYB,,경상북도 안동시 풍천면 도청대로 455,054-880-8911,36.5684,128.7294,2025-09-21 19:16:34.66741+00,2025-10-16 09:13:49.787289+00
ce3e0e3c-05a7-453a-8ea2-bce02b6d0060,창원시 마산회원구 보건소,health_center,,GYN,,경남 창원시 마산회원구 구암남14길 33,055-225-5900,35.250566734015,128.600782267429,2025-09-21 19:25:46.996595+00,2025-10-16 08:37:57.815706+00
cf474510-5e71-47a6-bb6d-8d98791d3fe0,파주시 보건소,health_center,,GYE,,경기 파주시 후곡로 13,031-940-4000,37.7563505565604,126.773914259191,2025-09-21 19:25:46.553242+00,2025-10-16 08:37:52.386239+00
cf6de753-07b8-40ba-8cdb-7ff8fd7b67d3,성남시 분당구 보건소,health_center,,GYE,,경기 성남시 분당구 양현로 306,031-729-4000,37.4110715765491,127.124748359392,2025-09-21 19:25:46.553242+00,2025-10-16 08:37:50.191543+00
d139b855-e3f0-4864-acd1-ca88c13ea3e7,산청군 보건소,health_center,,GYN,,경남 산청군 산청읍 중앙로 97,055-970-7500,35.4160692518303,127.8842644282,2025-09-21 19:25:46.996595+00,2025-10-16 08:38:00.175355+00
d1f57496-eccf-48df-ae7a-b356de44eecd,고양시 덕양구 보건소,health_center,,GYE,,경기 고양시 덕양구 원당로33번길 28,031-8075-4000,37.6577862845928,126.831167768056,2025-09-21 19:25:46.553242+00,2025-10-16 08:37:50.28709+00
d2416a59-c5bb-4942-b33b-c233ecdae785,충청북도,province,,CHB,,,,,,2025-09-08 15:33:17.099256+00,2025-09-08 15:33:17.099256+00
d2ddccb0-1ed4-4343-90b0-a1c35ef01175,상주시 보건소,health_center,,GYB,,경북 상주시 중앙로 111,054-537-5000,36.4166421121132,128.150569112383,2025-09-21 19:25:46.933705+00,2025-10-16 08:37:48.496805+00
d3576f5d-bf34-40d7-9361-00b054698afd,인천응급의료지원센터,emergency_center,,INC,,인천광역시 남동구 정각로 29,032-278-0119,37.4563,126.7052,2025-09-21 19:16:34.66741+00,2025-10-16 08:45:14.716777+00
d3aedc08-6448-4b4a-9bba-3a1340bbbf1c,보건복지부,ministry,,KR,,세종특별자치시 한누리대로 2130,,36.4801,127.289,2025-09-08 15:33:17.099256+00,2025-10-16 08:45:15.818841+00
d4e77ac7-91d9-41c5-b094-1e9fd25e3b4a,용인시 수지구 보건소,health_center,,GYE,,경기 용인시 수지구 포은대로 435,031-324-8000,37.3221610538966,127.096824337773,2025-09-21 19:25:46.553242+00,2025-10-16 08:37:50.729726+00
d6381dfd-ebde-4913-8500-e7e9c4f8a01d,충청남도 청양군 보건소,health_center,,CHN,,충청남도 청양군,041-940-4500,,,2025-09-21 19:25:46.737648+00,2025-09-21 19:25:46.737648+00
d64a8832-5c9f-4ab7-8358-fb1d29eea22d,안양시 만안구 보건소,health_center,,GYE,,경기 안양시 만안구 문예로 48,031-8045-2000,37.385840218966,126.93294933214,2025-09-21 19:25:46.553242+00,2025-10-16 08:37:50.804525+00
d66c1c19-c39b-4950-938d-aa912428c1da,광주광역시 광산구 보건소,health_center,,GWA,,광주 광산구 하남마항로48번길 7,062-960-8000,35.184860431745,126.800756346397,2025-09-21 19:25:46.258924+00,2025-10-16 08:37:44.392303+00
d781db96-9ad4-473c-af99-f3aaa607edf0,담양군 보건소,health_center,,JEN,,전남 담양군 담양읍 완동길 10-11,061-380-3000,35.3250423702397,126.98123742932,2025-09-21 19:25:46.870534+00,2025-10-16 08:38:07.822477+00
d92a12ba-fe3f-4ea7-b59a-4305a4c7adf8,대구광역시 수성구 보건소,health_center,,DAE,,대구 수성구 수성로 213,053-666-3000,35.8446115667273,128.612331497816,2025-09-21 19:25:46.124943+00,2025-10-16 08:37:38.707709+00
dbb90388-1990-4699-9ff8-9c674f5416dd,부산광역시 부산진구 보건소,health_center,,BUS,,부산 부산진구 황령대로8번길 36,051-645-4000,35.1462777060438,129.059954898534,2025-09-21 19:25:46.006943+00,2025-10-16 08:37:33.44185+00
dd232f6e-3983-4ac2-aa2b-4f94bd3d033f,고창군 보건소,health_center,,JEB,,전북특별자치도 고창군 고창읍 전봉준로 90,063-560-8700,35.443805260103,126.683245428472,2025-09-21 19:25:46.811478+00,2025-10-16 08:38:05.36069+00
dd97d365-9aeb-49c7-9ea6-f9f13c3a019a,부산광역시 서구 보건소,health_center,,BUS,,부산 서구 부용로 30,051-240-4000,35.1074252355211,129.018047954178,2025-09-21 19:25:46.006943+00,2025-10-16 08:37:33.248226+00
ddcfed19-7837-455c-990b-49ee1619c651,충청남도 공주시 보건소,health_center,,CHN,,충청남도 공주시,041-840-8000,,,2025-09-21 19:25:46.737648+00,2025-09-21 19:25:46.737648+00
ddff850a-b7dd-424c-ae70-4d5acc3c4493,문경시 보건소,health_center,,GYB,,경북 문경시 점촌1길 9,054-550-8000,36.5962562657736,128.197505839432,2025-09-21 19:25:46.933705+00,2025-10-16 08:37:46.208002+00
df4e7946-0005-4025-8439-c6f3d2689fa8,광양시보건소,health_center,,JEN,,전남 광양시 광양읍 인덕로 1100,061-797-4000,34.981039925415,127.583530125131,2025-09-21 19:25:46.870534+00,2025-10-16 08:38:07.721917+00
df7ada02-c26c-4726-b06d-a68ae400b10a,포항시 북구 보건소,health_center,,GYB,,경북 포항시 북구 흥해읍 한동로 1,054-270-4100,36.1119498826532,129.341960126651,2025-09-21 19:25:46.933705+00,2025-10-16 08:37:48.407065+00
e1104882-1b59-4436-860e-997e7fc0f2cf,중앙응급의료센터,emergency_center,,SEO,,서울특별시 중구 세종대로 110,,37.5665,126.978,2025-09-08 15:33:17.099256+00,2025-10-16 09:13:50.192764+00
e54abafe-3449-4b71-93b2-c139e1659dc6,고양시 일산동구 보건소,health_center,,GYE,,경기 고양시 일산동구 중앙로 1100,031-8075-4100,37.6471580708698,126.783571241922,2025-09-21 19:25:46.553242+00,2025-10-16 08:37:50.377116+00
e5c15d63-3fa7-49e1-a6fc-21a1025d35bb,횡성군 보건소,health_center,,GAN,,강원특별자치도 횡성군 횡성읍 횡성로 379,033-340-5600,37.4870955196259,127.984416884667,2025-09-21 19:25:46.618973+00,2025-10-16 08:37:42.690979+00
e82a8212-e1a6-48d4-adaf-b0cba4805919,인천광역시 중구 보건소,health_center,,INC,,인천 중구 참외전로72번길 21,032-760-4000,37.4771316699484,126.628668773063,2025-09-21 19:25:46.199323+00,2025-10-16 08:38:01.543018+00
eb0a72e2-b55f-423d-92a3-51b5645209bd,부산광역시 영도구 보건소,health_center,,BUS,,부산광역시 영도구 태종로 423,051-419-4000,,,2025-09-21 19:25:46.006943+00,2025-09-21 19:25:46.006943+00
eccf5e7c-ba13-44f0-9258-7921bfb219a3,서울특별시,province,,SEO,,,,,,2025-09-08 15:33:17.099256+00,2025-09-08 15:33:17.099256+00
eff96ee0-454a-486b-9927-2235a03fbe5a,진도군 보건소,health_center,,JEN,,전라남도 진도군,061-540-3000,,,2025-09-21 19:25:46.870534+00,2025-09-21 19:25:46.870534+00
f0b3d225-68eb-41ba-a06a-07bc2c63864c,의성군 보건소,health_center,,GYB,,경북 의성군 의성읍 구봉길 228,054-830-6600,36.3457066235453,128.697553850243,2025-09-21 19:25:46.933705+00,2025-10-16 08:37:46.495851+00
f0dd26ef-015e-4f48-b436-2d4f634879bd,경상남도,province,,GYN,,,,,,2025-09-08 15:33:17.099256+00,2025-09-08 15:33:17.099256+00
f2906f58-8420-4d6c-8dcd-cc4c8116c824,전주시 덕진구 보건소,health_center,,JEB,,전북특별자치도 전주시 덕진구 우아1길 20,063-281-6300,35.848372357525,127.154969218295,2025-09-21 19:25:46.811478+00,2025-10-16 08:38:03.437131+00
f299182c-77a4-4047-bc6e-b7061b755e37,세종특별자치시,province,,SEJ,,,,,,2025-09-08 15:33:17.099256+00,2025-09-08 15:33:17.099256+00
f3fcc143-14a6-4e40-a95c-a7bba1468ff7,동해시 보건소,health_center,,GAN,,강원특별자치도 동해시 천곡로 100-2,033-539-9000,37.5228707763193,129.117146464891,2025-09-21 19:25:46.618973+00,2025-10-16 08:37:42.613691+00
f46cf42c-aa93-4f79-a5d8-3bd59aef11e9,정선군 보건소,health_center,,GAN,,강원특별자치도 정선군 정선읍 녹송로 33,033-560-2000,37.3800726198207,128.671437172589,2025-09-21 19:25:46.618973+00,2025-10-16 08:37:41.157297+00
f4b06d79-b9d1-4222-a66c-f1ad6c0ef513,부천시 보건소,health_center,,GYE,,경기 부천시 원미구 옥산로10번길 16,032-625-4000,37.4942780756416,126.780966779124,2025-09-21 19:25:46.553242+00,2025-10-16 08:37:51.972155+00
f50f43dc-87f6-4a4b-a19c-04b636ceb84f,영월군 보건소,health_center,,GAN,,강원특별자치도 영월군 영월읍 하송로 44,033-370-2000,37.1840864060103,128.463362518483,2025-09-21 19:25:46.618973+00,2025-10-16 08:37:40.987691+00
f5dff942-1005-4171-8350-4cf86a8452f7,구례군 보건소,health_center,,JEN,,전남 구례군 구례읍 동편제길 30,061-780-2000,35.2160275905361,127.460976977675,2025-09-21 19:25:46.870534+00,2025-10-16 08:38:07.901849+00
f5eac680-19de-4e96-8bb7-c24336e9532c,대전광역시 서구 보건소,health_center,,DAJ,,대전 서구 만년로 74,042-288-4500,36.3670748857232,127.381069791373,2025-09-21 19:25:46.330268+00,2025-10-16 08:37:38.973829+00
f658f510-60ea-4982-8d80-1c94b779901e,강원도,province,,GAN,,,,,,2025-09-08 15:33:17.099256+00,2025-09-08 15:33:17.099256+00
f6d2aca3-c75d-45f9-9d45-115347fb7070,구미시 보건소,health_center,,GYB,,경북 구미시 선산대로 111,054-480-4000,36.1399354135816,128.345953552073,2025-09-21 19:25:46.933705+00,2025-10-16 08:37:44.950397+00
f750ed02-d176-4550-b095-d66f2fe78cb0,세종응급의료지원센터,emergency_center,,SEJ,,세종특별자치시 한누리대로 2130,044-300-5790,36.4801,127.289,2025-09-21 19:16:34.66741+00,2025-10-16 08:45:14.39733+00
f7f1f99a-842f-4c6e-af3f-cbb6ff3d24ed,거제시 보건소,health_center,,GYN,,경남 거제시 수양로 506,055-639-3000,34.8919320291366,128.636731606913,2025-09-21 19:25:46.996595+00,2025-10-16 08:37:58.442568+00
fadab490-8b82-4b9f-983f-0482923e73f9,충청북도 제천시 보건소,health_center,,CHB,,충청북도 제천시,043-641-3000,,,2025-09-21 19:25:46.663564+00,2025-09-21 19:25:46.663564+00
fb0ebd3f-7e99-4cb1-82bb-f649a52994ce,울산광역시 울주군 보건소,health_center,,ULS,,울산 울주군 삼남읍 서향교1길 67-12,052-204-2000,35.5583735831362,129.113730204863,2025-09-21 19:25:46.384918+00,2025-10-16 08:38:17.25428+00
fb2e1afc-f3d2-4f3a-ae45-bf296983feb3,포천시 보건소,health_center,,GYE,,경기 포천시 포천로 1612,031-538-3600,37.9007717344383,127.20124450949,2025-09-21 19:25:46.553242+00,2025-10-16 08:37:54.50247+00
fddbde31-0f7a-4351-8149-72fe599b3f70,화천군 보건소,health_center,,GAN,,강원특별자치도 화천군 화천읍 강변로 111,033-440-2000,38.1072537498238,127.709091306749,2025-09-21 19:25:46.618973+00,2025-10-16 08:37:42.788952+00
fe2ea5c3-fb42-4682-84eb-ebd5f3cc9a05,제주응급의료지원센터,emergency_center,,JEJ,,제주특별자치도 제주시 문연로 6,064-710-2911,33.489,126.4983,2025-09-21 19:16:34.66741+00,2025-10-16 09:13:50.11627+00
ff38705f-5dbd-4093-b6d8-25a31832ccbc,충청북도 괴산군 보건소,health_center,,CHB,,충청북도 괴산군,043-830-2000,,,2025-09-21 19:25:46.663564+00,2025-09-21 19:25:46.663564+00
ff3b5922-f8ce-4fa4-84db-39c520fc350d,창원시 의창구 보건소,health_center,,GYN,,경남 창원시 의창구 동읍 용잠로 41,055-225-4000,35.279748760668,128.688696718974,2025-09-21 19:25:46.996595+00,2025-10-16 08:37:56.553065+00
ff617e68-02b9-4225-a565-5a8617bcbb34,부산광역시 수영구 보건소,health_center,,BUS,,부산 수영구 수영로 637-5,051-752-4000,35.1626441095325,129.113431651024,2025-09-21 19:25:46.006943+00,2025-10-16 08:37:35.157364+00
ff722f67-d0f9-40e8-beaa-3b01af4681d2,부산응급의료지원센터,emergency_center,,BUS,,부산광역시 연제구 중앙대로 1001,051-253-7119,35.1796,129.0756,2025-09-21 19:16:34.66741+00,2025-10-16 08:45:14.077137+00